OBJECT_NAME,OBJECT_ID,EPOCH,MEAN_MOTION,ECCENTRICITY,INCLINATION,RA_OF_ASC_NODE,ARG_OF_PERICENTER,MEAN_ANOMALY,EPHEMERIS_TYPE,CLASSIFICATION_TYPE,NORAD_CAT_ID,ELEMENT_SET_NO,REV_AT_EPOCH,BSTAR,MEAN_MOTION_DOT,MEAN_MOTION_DDOT
IRIDIUM 154,2018-061F,2026-06-17T02:12:34.289856,14.34216433,.00021278,86.3961,56.8465,87.3073,272.8367,0,U,43574,999,41339,.2294044E-4,.84E-6,0
IRIDIUM 163,2018-061G,2026-06-17T03:25:38.236224,14.34216405,.00022512,86.3959,56.7408,83.5349,276.6103,0,U,43575,999,41337,.9417056E-5,.46E-6,0
IRIDIUM 156,2018-061H,2026-06-17T14:32:22.525728,14.34217214,.00020468,86.3962,56.5545,82.3661,277.7767,0,U,43576,999,41343,.68396838E-4,.211E-5,0
IRIDIUM 164,2018-061J,2026-06-17T02:21:42.411456,14.34216895,.00021609,86.3960,56.8068,88.8772,271.2672,0,U,43577,999,41340,.48057576E-4,.154E-5,0
IRIDIUM 159,2018-061K,2026-06-17T03:16:30.531072,14.34217581,.00022807,86.3960,56.7278,83.8702,276.2754,0,U,43578,999,41337,.11674189E-4,.52E-6,0
IRIDIUM 180,2019-002A,2026-06-17T13:18:34.880832,14.34217198,.0002245,86.3970,353.4438,89.0950,271.0503,0,U,43922,999,38904,.37455451E-4,.125E-5,0
IRIDIUM 176,2019-002B,2026-06-17T11:58:13.690848,14.72267339,.0002292,86.6090,353.4107,92.8388,267.3092,0,U,43923,999,39929,.91298911E-4,.601E-5,0
IRIDIUM 168,2019-002C,2026-06-17T13:09:26.715168,14.34218749,.00021804,86.3974,353.5240,89.3052,270.8394,0,U,43924,999,38902,.20551263E-4,.77E-6,0
IRIDIUM 173,2019-002D,2026-06-17T14:31:38.906688,14.34216803,.00021746,86.3969,353.3889,87.4032,272.7413,0,U,43925,999,38901,.39637072E-4,.131E-5,0
IRIDIUM 169,2019-002E,2026-06-17T14:24:01.952640,14.38609167,.00018351,86.4224,25.0208,73.0147,287.1252,0,U,43926,999,39028,.65190916E-4,.219E-5,0
IRIDIUM 172,2019-002F,2026-06-17T14:22:30.747936,14.34218663,.00022516,86.3970,353.3995,88.7207,271.4246,0,U,43927,999,38902,.44619794E-4,.145E-5,0
IRIDIUM 175,2019-002G,2026-06-17T09:56:50.512992,14.43612781,.00025254,86.4513,290.4259,178.2407,181.8804,0,U,43928,999,39901,.71483043E-4,.262E-5,0
IRIDIUM 171,2019-002H,2026-06-17T12:14:38.894496,14.34217402,.00019306,86.3975,353.7428,90.8752,269.2665,0,U,43929,999,38900,-.27142196E-4,-.56E-6,0
IRIDIUM 170,2019-002J,2026-06-17T12:07:07.671360,14.72267873,.00023612,86.6091,353.4105,89.3107,270.8381,0,U,43930,999,39930,.91933433E-4,.605E-5,0
IRIDIUM 167,2019-002K,2026-06-17T12:05:30.857568,14.34217604,.00017686,86.3967,353.4616,92.0454,268.0944,0,U,43931,999,38900,-.2026859E-5,.14E-6,0
IRIDIUM 181,2023-068S,2026-06-17T02:33:17.496000,14.43312412,.00023582,86.4498,56.8243,88.5401,271.6070,0,U,56726,999,16242,.76413881E-4,.277E-5,0
IRIDIUM 177,2023-068T,2026-06-17T12:36:33.238080,14.80224847,.00023461,86.1964,328.6307,88.5551,271.5939,0,U,56727,999,16641,.62270763E-4,.5E-5,0
IRIDIUM 174,2023-068U,2026-06-17T11:49:21.856512,14.72264223,.00024594,86.6098,353.5631,84.1387,276.0110,0,U,56728,999,16606,.94769863E-4,.622E-5,0
IRIDIUM 178,2023-068V,2026-06-17T02:36:49.423968,14.80233634,.00026323,86.6537,25.3929,85.8423,274.3099,0,U,56729,999,16635,.10022006E-3,.788E-5,0
IRIDIUM 179,2023-068W,2026-06-17T02:29:02.924448,14.80231047,.00024651,86.6777,34.3753,88.7134,271.4370,0,U,56730,999,16635,.89585562E-4,.707E-5,0
