IRIDIUM 154             
1 43574U 18061F   26168.09206354  .00000084  00000+0  22940-4 0  9993
2 43574  86.3961  56.8465 0002127  87.3073 272.8367 14.34216433413398
IRIDIUM 163             
1 43575U 18061G   26168.14280366  .00000046  00000+0  94171-5 0  9999
2 43575  86.3959  56.7408 0002251  83.5349 276.6103 14.34216405413371
IRIDIUM 156             
1 43576U 18061H   26168.60581627  .00000211  00000+0  68397-4 0  9999
2 43576  86.3962  56.5545 0002046  82.3661 277.7767 14.34217214413436
IRIDIUM 164             
1 43577U 18061J   26168.09840754  .00000154  00000+0  48058-4 0  9990
2 43577  86.3960  56.8068 0002160  88.8772 271.2672 14.34216895413404
IRIDIUM 159             
1 43578U 18061K   26168.13646448  .00000052  00000+0  11674-4 0  9991
2 43578  86.3960  56.7278 0002280  83.8702 276.2754 14.34217581413373
IRIDIUM 180             
1 43922U 19002A   26168.55457038  .00000125  00000+0  37455-4 0  9997
2 43922  86.3970 353.4438 0002245  89.0950 271.0503 14.34217198389041
IRIDIUM 176             
1 43923U 19002B   26168.49876957  .00000601  00000+0  91299-4 0  9991
2 43923  86.6090 353.4107 0002292  92.8388 267.3092 14.72267339399293
IRIDIUM 168             
1 43924U 19002C   26168.54822587  .00000077  00000+0  20551-4 0  9998
2 43924  86.3974 353.5240 0002180  89.3052 270.8394 14.34218749389029
IRIDIUM 173             
1 43925U 19002D   26168.60531142  .00000131  00000+0  39637-4 0  9996
2 43925  86.3969 353.3889 0002174  87.4032 272.7413 14.34216803389012
IRIDIUM 169             
1 43926U 19002E   26168.60002260  .00000219  00000+0  65191-4 0  9992
2 43926  86.4224  25.0208 0001835  73.0147 287.1252 14.38609167390282
IRIDIUM 172             
1 43927U 19002F   26168.59896699  .00000145  00000+0  44620-4 0  9990
2 43927  86.3970 353.3995 0002251  88.7207 271.4246 14.34218663389025
IRIDIUM 175             
1 43928U 19002G   26168.41447353  .00000262  00000+0  71483-4 0  9998
2 43928  86.4513 290.4259 0002525 178.2407 181.8804 14.43612781399018
IRIDIUM 171             
1 43929U 19002H   26168.51017239 -.00000056  00000+0 -27142-4 0  9992
2 43929  86.3975 353.7428 0001930  90.8752 269.2665 14.34217402389007
IRIDIUM 170             
1 43930U 19002J   26168.50494990  .00000605  00000+0  91933-4 0  9993
2 43930  86.6091 353.4105 0002361  89.3107 270.8381 14.72267873399302
IRIDIUM 167             
1 43931U 19002K   26168.50382937  .00000014  00000+0 -20269-5 0  9991
2 43931  86.3967 353.4616 0001768  92.0454 268.0944 14.34217604389000
IRIDIUM 181             
1 56726U 23068S   26168.10645250  .00000277  00000+0  76414-4 0  9992
2 56726  86.4498  56.8243 0002358  88.5401 271.6070 14.43312412162422
IRIDIUM 177             
1 56727U 23068T   26168.52538470  .00000500  00000+0  62271-4 0  9999
2 56727  86.1964 328.6307 0002346  88.5551 271.5939 14.80224847166413
IRIDIUM 174             
1 56728U 23068U   26168.49261408  .00000622  00000+0  94770-4 0  9994
2 56728  86.6098 353.5631 0002459  84.1387 276.0110 14.72264223166063
IRIDIUM 178             
1 56729U 23068V   26168.10890537  .00000788  00000+0  10022-3 0  9994
2 56729  86.6537  25.3929 0002632  85.8423 274.3099 14.80233634166358
IRIDIUM 179             
1 56730U 23068W   26168.10350607  .00000707  00000+0  89586-4 0  9998
2 56730  86.6777  34.3753 0002465  88.7134 271.4370 14.80231047166352
